; Generated by G-Code Exporter
; Routes: 8, Speed: 1500 mm/min
; Cut depth: -0.1mm, Safety: 5.0mm

G90
G21
G0 Z5.0 F1500
G0 X-213.210 Y-180.670
G0 X-210.691 Y-179.568 A23.625
G1 Z-0.1
G1 X-210.437 Y-179.457 F1500
G1 X-210.086 Y-179.600 A18.473 F1500
G1 X-209.690 Y-179.780 A12.952 F1500
G1 X-209.311 Y-180.018 A7.052 F1500
G1 X-208.959 Y-180.290 A1.221 F1500
G0 Z5.0
G0 X-208.967 Y-180.570 A-4.610
G1 Z-0.1
G1 X-208.636 Y-180.597 F1500
G1 X-208.346 Y-180.938 A-10.507 F1500
G1 X-208.141 Y-181.272 A-16.023 F1500
G1 X-207.962 Y-181.606 A-21.171 F1500
G0 Z5.0
G0 X-211.168 Y-183.287 A-103.493
G1 Z-0.1
G1 X-211.525 Y-184.774 F1500
G1 X-212.287 Y-186.118 A-109.267 F1500
G1 X-213.409 Y-187.813 A-115.308 F1500
G1 X-214.695 Y-189.400 A-121.150 F1500
G1 X-216.741 Y-191.710 A-126.640 F1500
G1 X-225.714 Y-201.975 A-130.400 F1500
G1 X-226.491 Y-204.055 A-121.508 F1500
G1 X-226.497 Y-204.644 A-116.193 F1500
G1 X-226.359 Y-205.050 A-110.535 F1500
G1 X-226.162 Y-205.359 A-104.908 F1500
G1 X-225.929 Y-205.605 A-99.278 F1500
G1 X-225.679 Y-205.787 A-93.822 F1500
G1 X-225.411 Y-205.944 A-88.315 F1500
G1 X-225.100 Y-206.071 A-82.250 F1500
G1 X-224.806 Y-206.134 A-76.579 F1500
G1 X-224.512 Y-206.188 A-71.145 F1500
G1 X-224.208 Y-206.203 A-65.495 F1500
G1 X-223.881 Y-206.210 A-59.685 F1500
G1 X-223.551 Y-206.181 A-53.774 F1500
G1 X-223.209 Y-206.148 A-48.003 F1500
G1 X-222.843 Y-206.100 A-42.132 F1500
G1 X-222.464 Y-206.046 A-36.518 F1500
G1 X-222.044 Y-206.000 A-31.174 F1500
G1 X-221.498 Y-205.991 A-26.003 F1500
G1 X-220.823 Y-205.978 A-20.753 F1500
G1 X-219.947 Y-205.935 A-15.121 F1500
G1 X-218.352 Y-205.913 A-9.296 F1500
G1 X-216.073 Y-206.195 A-8.270 F1500
G1 X-215.315 Y-206.716 A-14.772 F1500
G1 X-214.703 Y-207.230 A-20.375 F1500
G1 X-214.334 Y-207.697 A-25.800 F1500
G1 X-214.016 Y-208.189 A-31.146 F1500
G1 X-213.838 Y-208.651 A-36.671 F1500
G1 X-213.709 Y-209.127 A-42.213 F1500
G1 X-213.652 Y-209.633 A-48.342 F1500
G1 X-213.692 Y-210.052 A-54.136 F1500
G1 X-213.748 Y-210.452 A-59.382 F1500
G1 X-213.846 Y-210.859 A-64.859 F1500
G1 X-213.999 Y-211.269 A-70.686 F1500
G1 X-214.194 Y-211.658 A-76.549 F1500
G1 X-214.418 Y-212.022 A-82.200 F1500
G1 X-214.662 Y-212.362 A-87.592 F1500
G1 X-214.973 Y-212.783 A-93.521 F1500
G1 X-215.347 Y-213.170 A-99.834 F1500
G1 X-215.737 Y-213.525 A-105.680 F1500
G1 X-216.143 Y-213.851 A-111.125 F1500
G1 X-216.644 Y-214.231 A-116.866 F1500
G1 X-217.197 Y-214.552 A-122.925 F1500
G1 X-217.774 Y-214.818 A-128.811 F1500
G1 X-218.371 Y-215.021 A-134.702 F1500
G1 X-219.070 Y-215.220 A-140.716 F1500
G1 X-219.856 Y-215.428 A-146.226 F1500
G1 X-220.852 Y-215.660 A-151.786 F1500
G1 X-222.379 Y-216.008 A-157.354 F1500
G1 X-231.032 Y-219.289 A-158.807 F1500
G1 X-231.715 Y-219.983 A-152.517 F1500
G1 X-232.051 Y-220.505 A-147.173 F1500
G1 X-232.275 Y-221.017 A-141.696 F1500
G1 X-232.383 Y-221.514 A-135.815 F1500
G1 X-232.401 Y-221.965 A-130.052 F1500
G1 X-232.370 Y-222.397 A-124.429 F1500
G1 X-232.298 Y-222.876 A-118.348 F1500
G1 X-232.165 Y-223.347 A-112.081 F1500
G1 X-232.000 Y-223.795 A-106.175 F1500
G1 X-231.812 Y-224.221 A-100.666 F1500
G1 X-231.581 Y-224.724 A-94.955 F1500
G1 X-231.296 Y-225.207 A-89.159 F1500
G1 X-230.992 Y-225.666 A-83.877 F1500
G1 X-230.625 Y-226.191 A-78.550 F1500
G1 X-230.208 Y-226.678 A-73.150 F1500
G1 X-229.706 Y-227.203 A-67.638 F1500
G1 X-229.023 Y-227.920 A-62.062 F1500
G1 X-227.732 Y-229.345 A-56.207 F1500
G1 X-226.269 Y-231.434 A-55.629 F1500
G1 X-225.707 Y-233.068 A-61.555 F1500
G1 X-225.267 Y-234.729 A-66.783 F1500
G1 X-224.888 Y-236.838 A-72.480 F1500
G1 X-224.757 Y-238.984 A-78.638 F1500
G1 X-224.848 Y-241.132 A-84.679 F1500
G1 X-225.161 Y-243.259 A-90.680 F1500
G1 X-225.697 Y-245.339 A-96.720 F1500
G1 X-226.459 Y-247.348 A-102.878 F1500
G1 X-227.260 Y-248.874 A-108.575 F1500
G1 X-228.176 Y-250.330 A-113.803 F1500
G1 X-228.745 Y-250.994 A-117.830 F1500
G0 Z5.0
G90
G21
G0 Z5.0 F1500
G0 X-332.644 Y-263.288
G0 X-330.758 Y-261.287 A46.705
G1 Z-0.1
G1 X-175.492 Y-96.495 F1500
G0 Z5.0
G90
G21
G0 Z5.0 F1500
G0 X-307.081 Y-154.493
G0 X-307.449 Y-157.218 A-97.690
G1 Z-0.1
G1 X-307.701 Y-159.085 F1500
G1 X-307.373 Y-160.994 A-90.490 F1500
G1 X-306.808 Y-162.846 A-83.290 F1500
G1 X-306.015 Y-164.612 A-76.090 F1500
G1 X-305.008 Y-166.266 A-68.890 F1500
G1 X-303.801 Y-167.780 A-61.690 F1500
G1 X-302.413 Y-169.131 A-54.490 F1500
G1 X-300.868 Y-170.297 A-47.290 F1500
G1 X-299.188 Y-171.260 A-40.090 F1500
G1 X-297.401 Y-172.006 A-32.890 F1500
G1 X-295.534 Y-172.521 A-25.690 F1500
G1 X-293.618 Y-172.798 A-18.490 F1500
G1 X-291.682 Y-172.833 A-11.290 F1500
G1 X-289.757 Y-172.625 A-4.090 F1500
G0 Z5.0
G0 X-289.754 Y-172.280 A3.110
G1 Z-0.1
G1 X-287.873 Y-172.178 F1500
G1 X-286.060 Y-171.498 A10.310 F1500
G1 X-284.346 Y-170.596 A17.510 F1500
G1 X-282.760 Y-169.486 A24.710 F1500
G1 X-281.324 Y-168.186 A31.910 F1500
G1 X-280.063 Y-166.717 A39.110 F1500
G1 X-278.996 Y-165.101 A46.310 F1500
G1 X-278.140 Y-163.364 A53.510 F1500
G1 X-277.509 Y-161.534 A60.710 F1500
G1 X-277.111 Y-159.639 A67.910 F1500
G1 X-276.955 Y-157.709 A75.110 F1500
G1 X-277.042 Y-155.774 A82.310 F1500
G1 X-277.370 Y-153.866 A89.510 F1500
G1 X-277.935 Y-152.014 A96.710 F1500
G1 X-278.727 Y-150.247 A103.910 F1500
G1 X-279.735 Y-148.594 A111.110 F1500
G1 X-280.942 Y-147.080 A118.310 F1500
G1 X-282.330 Y-145.729 A125.510 F1500
G1 X-283.875 Y-144.563 A132.710 F1500
G1 X-285.555 Y-143.599 A139.910 F1500
G1 X-287.342 Y-142.854 A147.110 F1500
G1 X-289.209 Y-142.339 A154.310 F1500
G1 X-291.125 Y-142.061 A161.510 F1500
G1 X-293.061 Y-142.026 A168.710 F1500
G1 X-294.986 Y-142.234 A175.910 F1500
G0 Z5.0
G0 X-294.989 Y-142.579 A-176.890
G1 Z-0.1
G1 X-296.870 Y-142.682 F1500
G1 X-298.683 Y-143.362 A-169.690 F1500
G1 X-300.396 Y-144.264 A-162.490 F1500
G1 X-301.983 Y-145.373 A-155.290 F1500
G1 X-303.419 Y-146.673 A-148.090 F1500
G1 X-304.680 Y-148.143 A-140.890 F1500
G1 X-305.747 Y-149.758 A-133.690 F1500
G1 X-306.603 Y-151.495 A-126.490 F1500
G1 X-307.234 Y-153.326 A-119.290 F1500
G1 X-307.631 Y-155.221 A-112.090 F1500
G1 X-307.788 Y-157.151 A-104.890 F1500
G0 Z5.0
G90
G21
G0 Z5.0 F1500
G0 X-292.475 Y-66.774
G0 X-289.778 Y-67.312 A-11.290
G1 Z-0.1
G1 X-240.746 Y-77.101 F1500
G0 Z5.0
G0 X-243.981 Y-79.259 A-101.290
G1 Z-0.1
G1 X-253.769 Y-128.291 F1500
G0 Z5.0
G0 X-255.928 Y-125.056 A168.710
G1 Z-0.1
G1 X-304.960 Y-115.268 F1500
G0 Z5.0
G0 X-301.725 Y-113.109 A78.710
G1 Z-0.1
G1 X-291.936 Y-64.077 F1500
G0 Z5.0
G90
G21
G0 Z5.0 F1500
G0 X-298.519 Y-250.292
G0 X-295.823 Y-250.830 A-11.290
G1 Z-0.1
G1 X-276.210 Y-254.746 F1500
G0 Z5.0
G0 X-279.445 Y-256.904 A-101.290
G1 Z-0.1
G1 X-283.360 Y-276.517 F1500
G0 Z5.0
G0 X-285.519 Y-273.282 A168.710
G1 Z-0.1
G1 X-305.132 Y-269.367 F1500
G0 Z5.0
G0 X-301.897 Y-267.208 A78.710
G1 Z-0.1
G1 X-297.981 Y-247.595 F1500
G0 Z5.0
G90
G21
G0 Z5.0 F1500
G0 X-311.057 Y-39.553
G0 X-308.361 Y-40.091 A-11.290
G1 Z-0.1
G1 X-301.006 Y-41.560 F1500
G0 Z5.0
G0 X-304.241 Y-43.718 A-101.290
G1 Z-0.1
G1 X-305.709 Y-51.073 F1500
G0 Z5.0
G0 X-307.868 Y-47.838 A168.710
G1 Z-0.1
G1 X-315.222 Y-46.369 F1500
G0 Z5.0
G0 X-311.987 Y-44.211 A78.710
G1 Z-0.1
G1 X-310.519 Y-36.856 F1500
G0 Z5.0
G90
G21
G0 Z5.0 F1500
G0 X-359.563 Y-282.523
G0 X-356.866 Y-283.061 A-11.290
G1 Z-0.1
G1 X-349.511 Y-284.530 F1500
G0 Z5.0
G0 X-352.746 Y-286.688 A-101.290
G1 Z-0.1
G1 X-354.214 Y-294.043 F1500
G0 Z5.0
G0 X-356.373 Y-290.808 A168.710
G1 Z-0.1
G1 X-363.728 Y-289.340 F1500
G0 Z5.0
G0 X-360.492 Y-287.181 A78.710
G1 Z-0.1
G1 X-359.024 Y-279.826 F1500
G0 Z5.0
G90
G21
G0 Z5.0 F1500
G0 X-204.980 Y-313.383
G0 X-202.284 Y-313.921 A-11.290
G1 Z-0.1
G1 X-194.929 Y-315.390 F1500
G0 Z5.0
G0 X-198.164 Y-317.548 A-101.290
G1 Z-0.1
G1 X-199.632 Y-324.903 F1500
G0 Z5.0
G0 X-201.791 Y-321.668 A168.710
G1 Z-0.1
G1 X-209.146 Y-320.199 F1500
G0 Z5.0
G0 X-205.910 Y-318.041 A78.710
G1 Z-0.1
G1 X-204.442 Y-310.686 F1500
G0 Z5.0
G0 Z5.0 ; Raise to safety height
G0 X0 Y0 ; Return to origin
M2 ; End program
