; Generated by G-Code Exporter
; Routes: 8, Speed: 1500 mm/min
; Cut depth: -0.1mm, Safety: 5.0mm
; Applied offset: X-45.000 Y0.000

G90
G21
G0 Z5.0 F1500
G0 X188.812 Y265.823
G0 X191.332 Y266.923 A23.570
G1 Z-0.1
G1 X191.586 Y267.033 F1500
G1 X191.938 Y266.890 A18.418 F1500
G1 X192.333 Y266.709 A12.897 F1500
G1 X192.712 Y266.471 A6.997 F1500
G1 X193.064 Y266.199 A1.166 F1500
G0 Z5.0
G0 X193.055 Y265.919 A-4.665
G1 Z-0.1
G1 X193.387 Y265.892 F1500
G1 X193.676 Y265.551 A-10.562 F1500
G1 X193.881 Y265.216 A-16.079 F1500
G1 X194.060 Y264.882 A-21.226 F1500
G0 Z5.0
G0 X190.852 Y263.204 A-103.549
G1 Z-0.1
G1 X190.494 Y261.717 F1500
G1 X189.730 Y260.375 A-109.322 F1500
G1 X188.606 Y258.680 A-115.364 F1500
G1 X187.319 Y257.095 A-121.205 F1500
G1 X185.270 Y254.786 A-126.695 F1500
G1 X176.288 Y244.531 A-130.456 F1500
G1 X175.509 Y242.451 A-121.563 F1500
G1 X175.502 Y241.862 A-116.249 F1500
G1 X175.640 Y241.456 A-110.590 F1500
G1 X175.836 Y241.147 A-104.963 F1500
G1 X176.069 Y240.900 A-99.333 F1500
G1 X176.319 Y240.718 A-93.877 F1500
G1 X176.587 Y240.561 A-88.370 F1500
G1 X176.898 Y240.433 A-82.305 F1500
G1 X177.192 Y240.371 A-76.634 F1500
G1 X177.486 Y240.316 A-71.200 F1500
G1 X177.790 Y240.301 A-65.550 F1500
G1 X178.116 Y240.293 A-59.740 F1500
G1 X178.447 Y240.322 A-53.829 F1500
G1 X178.789 Y240.355 A-48.058 F1500
G1 X179.155 Y240.402 A-42.188 F1500
G1 X179.534 Y240.456 A-36.573 F1500
G1 X179.953 Y240.501 A-31.230 F1500
G1 X180.500 Y240.510 A-26.058 F1500
G1 X181.175 Y240.523 A-20.809 F1500
G1 X182.050 Y240.565 A-15.177 F1500
G1 X183.646 Y240.585 A-9.351 F1500
G1 X185.925 Y240.301 A-8.325 F1500
G1 X186.682 Y239.779 A-14.828 F1500
G1 X187.294 Y239.264 A-20.430 F1500
G1 X187.662 Y238.797 A-25.855 F1500
G1 X187.979 Y238.305 A-31.201 F1500
G1 X188.157 Y237.842 A-36.726 F1500
G1 X188.285 Y237.367 A-42.268 F1500
G1 X188.342 Y236.860 A-48.397 F1500
G1 X188.302 Y236.442 A-54.192 F1500
G1 X188.246 Y236.042 A-59.437 F1500
G1 X188.147 Y235.635 A-64.915 F1500
G1 X187.994 Y235.225 A-70.742 F1500
G1 X187.798 Y234.836 A-76.604 F1500
G1 X187.574 Y234.472 A-82.255 F1500
G1 X187.330 Y234.133 A-87.648 F1500
G1 X187.019 Y233.712 A-93.576 F1500
G1 X186.644 Y233.325 A-99.889 F1500
G1 X186.253 Y232.970 A-105.735 F1500
G1 X185.847 Y232.645 A-111.180 F1500
G1 X185.346 Y232.265 A-116.921 F1500
G1 X184.792 Y231.945 A-122.980 F1500
G1 X184.216 Y231.679 A-128.866 F1500
G1 X183.618 Y231.477 A-134.757 F1500
G1 X182.919 Y231.279 A-140.771 F1500
G1 X182.133 Y231.071 A-146.282 F1500
G1 X181.137 Y230.840 A-151.841 F1500
G1 X179.609 Y230.494 A-157.409 F1500
G1 X170.953 Y227.221 A-158.862 F1500
G1 X170.270 Y226.527 A-152.572 F1500
G1 X169.932 Y226.006 A-147.228 F1500
G1 X169.708 Y225.495 A-141.751 F1500
G1 X169.600 Y224.997 A-135.870 F1500
G1 X169.582 Y224.547 A-130.107 F1500
G1 X169.612 Y224.114 A-124.484 F1500
G1 X169.683 Y223.635 A-118.403 F1500
G1 X169.816 Y223.164 A-112.137 F1500
G1 X169.980 Y222.716 A-106.230 F1500
G1 X170.168 Y222.290 A-100.721 F1500
G1 X170.399 Y221.786 A-95.010 F1500
G1 X170.683 Y221.303 A-89.215 F1500
G1 X170.987 Y220.844 A-83.932 F1500
G1 X171.353 Y220.319 A-78.605 F1500
G1 X171.770 Y219.832 A-73.205 F1500
G1 X172.271 Y219.306 A-67.694 F1500
G1 X172.954 Y218.588 A-62.117 F1500
G1 X174.244 Y217.162 A-56.262 F1500
G1 X175.704 Y215.072 A-55.684 F1500
G1 X176.265 Y213.437 A-61.610 F1500
G1 X176.703 Y211.775 A-66.838 F1500
G1 X177.081 Y209.666 A-72.535 F1500
G1 X177.209 Y207.520 A-78.693 F1500
G1 X177.116 Y205.372 A-84.734 F1500
G1 X176.801 Y203.246 A-90.735 F1500
G1 X176.263 Y201.166 A-96.776 F1500
G1 X175.499 Y199.158 A-102.933 F1500
G1 X174.697 Y197.632 A-108.630 F1500
G1 X173.779 Y196.178 A-113.858 F1500
G1 X173.210 Y195.514 A-117.885 F1500
G0 Z5.0
G90
G21
G0 Z5.0 F1500
G0 X69.299 Y183.320
G0 X71.186 Y185.319 A46.650
G1 Z-0.1
G1 X226.611 Y349.962 F1500
G0 Z5.0
G90
G21
G0 Z5.0 F1500
G0 X94.966 Y292.090
G0 X94.595 Y289.365 A-97.745
G1 Z-0.1
G1 X94.342 Y287.499 F1500
G1 X94.668 Y285.590 A-90.545 F1500
G1 X95.231 Y283.738 A-83.345 F1500
G1 X96.022 Y281.970 A-76.145 F1500
G1 X97.028 Y280.316 A-68.945 F1500
G1 X98.234 Y278.800 A-61.745 F1500
G1 X99.620 Y277.448 A-54.545 F1500
G1 X101.165 Y276.281 A-47.345 F1500
G1 X102.843 Y275.316 A-40.145 F1500
G1 X104.630 Y274.569 A-32.945 F1500
G1 X106.496 Y274.051 A-25.745 F1500
G1 X108.412 Y273.772 A-18.545 F1500
G1 X110.348 Y273.735 A-11.345 F1500
G1 X112.273 Y273.941 A-4.145 F1500
G0 Z5.0
G0 X112.277 Y274.287 A3.055
G1 Z-0.1
G1 X114.158 Y274.387 F1500
G1 X115.971 Y275.065 A10.255 F1500
G1 X117.685 Y275.966 A17.455 F1500
G1 X119.273 Y277.074 A24.655 F1500
G1 X120.710 Y278.372 A31.855 F1500
G1 X121.972 Y279.840 A39.055 F1500
G1 X123.041 Y281.455 A46.255 F1500
G1 X123.899 Y283.191 A53.455 F1500
G1 X124.532 Y285.021 A60.655 F1500
G1 X124.931 Y286.916 A67.855 F1500
G1 X125.089 Y288.846 A75.055 F1500
G1 X125.005 Y290.780 A82.255 F1500
G1 X124.678 Y292.689 A89.455 F1500
G1 X124.115 Y294.541 A96.655 F1500
G1 X123.324 Y296.309 A103.855 F1500
G1 X122.318 Y297.963 A111.055 F1500
G1 X121.112 Y299.478 A118.255 F1500
G1 X119.726 Y300.831 A125.455 F1500
G1 X118.182 Y301.998 A132.655 F1500
G1 X116.503 Y302.963 A139.855 F1500
G1 X114.716 Y303.710 A147.055 F1500
G1 X112.850 Y304.228 A154.255 F1500
G1 X110.934 Y304.507 A161.455 F1500
G1 X108.998 Y304.544 A168.655 F1500
G1 X107.073 Y304.338 A175.855 F1500
G0 Z5.0
G0 X107.070 Y303.992 A-176.945
G1 Z-0.1
G1 X105.189 Y303.892 F1500
G1 X103.375 Y303.214 A-169.745 F1500
G1 X101.661 Y302.313 A-162.545 F1500
G1 X100.073 Y301.205 A-155.345 F1500
G1 X98.636 Y299.907 A-148.145 F1500
G1 X97.374 Y298.439 A-140.945 F1500
G1 X96.305 Y296.824 A-133.745 F1500
G1 X95.448 Y295.088 A-126.545 F1500
G1 X94.814 Y293.258 A-119.345 F1500
G1 X94.415 Y291.363 A-112.145 F1500
G1 X94.257 Y289.433 A-104.945 F1500
G0 Z5.0
G90
G21
G0 Z5.0 F1500
G0 X109.657 Y379.796
G0 X112.353 Y379.255 A-11.345
G1 Z-0.1
G1 X161.376 Y369.419 F1500
G0 Z5.0
G0 X158.139 Y367.264 A-101.345
G1 Z-0.1
G1 X148.303 Y318.241 F1500
G0 Z5.0
G0 X146.148 Y321.478 A168.655
G1 Z-0.1
G1 X97.125 Y331.314 F1500
G0 Z5.0
G0 X100.362 Y333.469 A78.655
G1 Z-0.1
G1 X110.198 Y382.492 F1500
G0 Z5.0
G90
G21
G0 Z5.0 F1500
G0 X103.436 Y196.283
G0 X106.132 Y195.742 A-11.345
G1 Z-0.1
G1 X125.741 Y191.808 F1500
G0 Z5.0
G0 X122.504 Y189.653 A-101.345
G1 Z-0.1
G1 X118.570 Y170.043 F1500
G0 Z5.0
G0 X116.414 Y173.281 A168.655
G1 Z-0.1
G1 X96.805 Y177.215 F1500
G0 Z5.0
G0 X100.042 Y179.370 A78.655
G1 Z-0.1
G1 X103.977 Y198.979 F1500
G0 Z5.0
G90
G21
G0 Z5.0 F1500
G0 X91.101 Y407.034
G0 X93.797 Y406.493 A-11.345
G1 Z-0.1
G1 X101.150 Y405.018 F1500
G0 Z5.0
G0 X97.913 Y402.863 A-101.345
G1 Z-0.1
G1 X96.438 Y395.509 F1500
G0 Z5.0
G0 X94.282 Y398.746 A168.655
G1 Z-0.1
G1 X86.929 Y400.222 F1500
G0 Z5.0
G0 X90.166 Y402.377 A78.655
G1 Z-0.1
G1 X91.642 Y409.730 F1500
G0 Z5.0
G90
G21
G0 Z5.0 F1500
G0 X42.362 Y164.111
G0 X45.058 Y163.570 A-11.345
G1 Z-0.1
G1 X52.411 Y162.095 F1500
G0 Z5.0
G0 X49.174 Y159.939 A-101.345
G1 Z-0.1
G1 X47.699 Y152.586 F1500
G0 Z5.0
G0 X45.543 Y155.823 A168.655
G1 Z-0.1
G1 X38.190 Y157.298 F1500
G0 Z5.0
G0 X41.427 Y159.454 A78.655
G1 Z-0.1
G1 X42.903 Y166.807 F1500
G0 Z5.0
G90
G21
G0 Z5.0 F1500
G0 X196.914 Y133.102
G0 X199.610 Y132.561 A-11.345
G1 Z-0.1
G1 X206.964 Y131.086 F1500
G0 Z5.0
G0 X203.726 Y128.931 A-101.345
G1 Z-0.1
G1 X202.251 Y121.577 F1500
G0 Z5.0
G0 X200.096 Y124.814 A168.655
G1 Z-0.1
G1 X192.742 Y126.290 F1500
G0 Z5.0
G0 X195.980 Y128.445 A78.655
G1 Z-0.1
G1 X197.455 Y135.798 F1500
G0 Z5.0
G0 Z5.0 ; Raise to safety height
G0 X0 Y0 ; Return to origin
M2 ; End program
